NORAD_CAT_ID,OBJECT_NAME,OBJECT_TYPE,EPOCH,MEAN_MOTION,ECCENTRICITY,INCLINATION,RA_OF_ASC_NODE,ARG_OF_PERICENTER,MEAN_ANOMALY,BSTAR,MEAN_MOTION_DOT,MEAN_MOTION_DDOT,TLE_LINE0,TLE_LINE1,TLE_LINE2,SEMIMAJOR_AXIS,PERIOD,APOGEE,PERIGEE,DECAYED
52310.0,STARLINK-3688,PAYLOAD,2023-01-03 10:30:38,15.08841635,0.0002608,53.2152,262.194,29.485,330.6289,0.00037719,5.720000000000002e-05,0.0,0 STARLINK-3688,1 52310U 22041BB  23003.43794217  .00005720  00000-0  37719-3 0  9999,2 52310  53.2152 262.1940 0002608  29.4850 330.6289 15.08841635 40555,6917.875,95.437,541.545,537.936,0.0
52310.0,STARLINK-3688,PAYLOAD,2023-01-04 02:24:29,15.08838656,0.0002716,53.2158,259.2201,34.926,325.191,0.00024222,3.569e-05,0.0,0 STARLINK-3688,1 52310U 22041BB  23004.10034671  .00003569  00000-0  24222-3 0  9999,2 52310  53.2158 259.2201 0002716  34.9260 325.1910 15.08838656 40654,6917.884,95.438,541.628,537.871,0.0
52310.0,STARLINK-3688,PAYLOAD,2023-01-04 10:21:25,15.08850992,0.0002546,53.2157,257.733,34.1794,325.9362,0.00051491,7.919e-05,0.0,0 STARLINK-3688,1 52310U 22041BB  23004.43154342  .00007919  00000-0  51491-3 0  9994,2 52310  53.2157 257.7330 0002546  34.1794 325.9362 15.08850992 40706,6917.847,95.437,541.4730000000002,537.951,0.0
52310.0,STARLINK-3688,PAYLOAD,2023-01-05 02:15:16,15.0885832,0.0002731,53.2156,254.7596,34.9142,325.2029,0.00058404,9.024e-05,0.0,0 STARLINK-3688,1 52310U 22041BB  23005.09393900  .00009024  00000-0  58404-3 0  9992,2 52310  53.2156 254.7596 0002731  34.9142 325.2029 15.08858320 40804,6917.824000000001,95.436,541.5790000000002,537.8,0.0
52310.0,STARLINK-3688,PAYLOAD,2023-01-06 16:24:31,15.0882896,0.0002816,53.2156,247.6225,35.2113,324.9065,-0.00029436,-4.969e-05,0.0,0 STARLINK-3688,1 52310U 22041BB  23006.68369856 -.00004969  00000-0 -29436-3 0  9999,2 52310  53.2156 247.6225 0002816  35.2113 324.9065 15.08828960 41040,6917.914000000002,95.438,541.727,537.831,0.0
52310.0,STARLINK-3688,PAYLOAD,2023-01-07 00:21:27,15.08835291,0.0002767,53.2151,246.1359,30.3498,329.7654,-5.3415e-06,-3.74e-06,0.0,0 STARLINK-3688,1 52310U 22041BB  23007.01490020 -.00000374  00000-0 -53415-5 0  9997,2 52310  53.2151 246.1359 0002767  30.3498 329.7654 15.08835291 41091,6917.895,95.438,541.674,537.846,0.0
52310.0,STARLINK-3688,PAYLOAD,2023-01-07 08:18:23,15.08839228,0.0002732,53.215,244.649,30.6482,329.4669,0.00046467,7.115e-05,0.0,0 STARLINK-3688,1 52310U 22041BB  23007.34610184  .00007115  00000-0  46467-3 0  9993,2 52310  53.2150 244.6490 0002732  30.6482 329.4669 15.08839228 41140,6917.883000000002,95.438,541.638,537.8580000000002,0.0
52310.0,STARLINK-3688,PAYLOAD,2023-01-07 22:36:51,15.08836853,0.0002619,53.2146,241.9738,37.2114,322.906,0.00039416,5.99e-05,0.0,0 STARLINK-3688,1 52310U 22041BB  23007.94226645  .00005990  00000-0  39416-3 0  9999,2 52310  53.2146 241.9738 0002619  37.2114 322.9060 15.08836853 41233,6917.89,95.438,541.567,537.943,0.0
52310.0,STARLINK-3688,PAYLOAD,2023-01-08 01:47:38,15.08834218,0.0002767,53.2145,241.3785,30.6527,329.4626,0.00023786,3.499e-05,0.0,0 STARLINK-3688,1 52310U 22041BB  23008.07474757  .00003499  00000-0  23786-3 0  9998,2 52310  53.2145 241.3785 0002767  30.6527 329.4626 15.08834218 41252,6917.898,95.438,541.677,537.849,0.0
52310.0,STARLINK-3688,PAYLOAD,2023-01-08 14:30:42,15.08848835,0.0002619,53.2149,238.9996,32.3708,327.7445,0.00047161,7.227e-05,0.0,0 STARLINK-3688,1 52310U 22041BB  23008.60466387  .00007227  00000-0  47161-3 0  9993,2 52310  53.2149 238.9996 0002619  32.3708 327.7445 15.08848835 41337,6917.853,95.437,541.53,537.9069999999998,0.0
52310.0,STARLINK-3688,PAYLOAD,2023-01-08 16:06:06,15.0884545,0.000255,53.2156,238.702,29.802,330.3117,0.00038103,5.782e-05,0.0,0 STARLINK-3688,1 52310U 22041BB  23008.67090453  .00005782  00000-0  38103-3 0  9997,2 52310  53.2156 238.7020 0002550  29.8020 330.3117 15.08845450 41340,6917.864000000001,95.437,541.493,537.965,0.0
52310.0,STARLINK-3688,PAYLOAD,2023-01-09 07:59:57,15.08843511,0.0002634,53.2151,235.7282,28.7938,331.3199,0.00022306,3.264e-05,0.0,0 STARLINK-3688,1 52310U 22041BB  23009.33330511  .00003264  00000-0  22306-3 0  9994,2 52310  53.2151 235.7282 0002634  28.7938 331.3199 15.08843511 41449,6917.87,95.437,541.557,537.9119999999998,0.0
52310.0,STARLINK-3688,PAYLOAD,2023-01-09 23:53:49,15.08838824,0.0002678,53.2147,232.7543,29.9694,330.1451,7.2054e-05,8.58e-06,0.0,0 STARLINK-3688,1 52310U 22041BB  23009.99570737  .00000858  00000-0  72054-4 0  9994,2 52310  53.2147 232.7543 0002678  29.9694 330.1451 15.08838824 41541,6917.884,95.438,541.602,537.896,0.0
52310.0,STARLINK-3688,PAYLOAD,2023-01-10 07:50:44,15.08840814,0.0002703,53.2146,231.2674,30.4877,329.6272,0.00010401,1.367e-05,0.0,0 STARLINK-3688,1 52310U 22041BB  23010.32690743  .00001367  00000-0  10401-3 0  9996,2 52310  53.2146 231.2674 0002703  30.4877 329.6272 15.08840814 41599,6917.8780000000015,95.438,541.613,537.873,0.0
52310.0,STARLINK-3688,PAYLOAD,2023-01-11 09:16:55,15.08836014,0.0002646,53.2143,226.5098,28.9547,331.1591,3.4624e-05,2.63e-06,0.0,0 STARLINK-3688,1 52310U 22041BB  23011.38675344  .00000263  00000-0  34624-4 0  9991,2 52310  53.2143 226.5098 0002646  28.9547 331.1591 15.08836014 41752,6917.893,95.438,541.5880000000002,537.927,0.0
52310.0,STARLINK-3688,PAYLOAD,2023-01-11 20:24:37,15.08837442,0.0002627,53.2146,224.4281,29.0121,331.1017,0.00011547,1.55e-05,0.0,0 STARLINK-3688,1 52310U 22041BB  23011.85043472  .00001550  00000-0  11547-3 0  9992,2 52310  53.2146 224.4281 0002627  29.0121 331.1017 15.08837442 41822,6917.888000000001,95.438,541.571,537.936,0.0
52310.0,STARLINK-3688,PAYLOAD,2023-01-12 20:15:24,15.08836036,0.0002616,53.2146,219.9675,31.6964,328.4185,0.00011578,1.555e-05,0.0,0 STARLINK-3688,1 52310U 22041BB  23012.84403867  .00001555  00000-0  11578-3 0  9999,2 52310  53.2146 219.9675 0002616  31.6964 328.4185 15.08836036 41979,6917.893,95.438,541.567,537.948,0.0
52310.0,STARLINK-3688,PAYLOAD,2023-01-13 13:44:39,15.08839093,0.0002665,53.2145,216.6965,33.1023,327.0135,0.00012918,1.768e-05,0.0,0 STARLINK-3688,1 52310U 22041BB  23013.57267934  .00001768  00000-0  12918-3 0  9998,2 52310  53.2145 216.6965 0002665  33.1023 327.0135 15.08839093 42080,6917.883000000001,95.438,541.592,537.905,0.0
52310.0,STARLINK-3688,PAYLOAD,2023-01-13 21:41:35,15.08842672,0.0002693,53.2144,215.2095,34.9216,325.1952,0.00013049,1.789e-05,0.0,0 STARLINK-3688,1 52310U 22041BB  23013.90387800  .00001789  00000-0  13049-3 0  9999,2 52310  53.2144 215.2095 0002693  34.9216 325.1952 15.08842672 42131,6917.871999999999,95.437,541.6,537.874,0.0
52310.0,STARLINK-3688,PAYLOAD,2023-01-13 23:16:58,15.08842918,0.000268,53.2143,214.9121,35.5511,324.566,0.0001449,2.019e-05,0.0,0 STARLINK-3688,1 52310U 22041BB  23013.97011782  .00002019  00000-0  14490-3 0  9997,2 52310  53.2143 214.9121 0002680  35.5511 324.5660 15.08842918 42140,6917.871,95.437,541.59,537.882,0.0
52310.0,STARLINK-3688,PAYLOAD,2023-01-15 13:26:13,15.08836119,0.0002686,53.2127,207.7758,42.8209,317.2992,3.6465e-05,2.92e-06,0.0,0 STARLINK-3688,1 52310U 22041BB  23015.55988243  .00000292  00000-0  36465-4 0  9996,2 52310  53.2127 207.7758 0002686  42.8209 317.2992 15.08836119 42388,6917.892,95.438,541.615,537.899,0.0
52310.0,STARLINK-3688,PAYLOAD,2023-01-15 19:47:46,15.08840219,0.0002637,53.2146,206.5858,40.0882,320.0304,5.0146e-05,5.1e-06,0.0,0 STARLINK-3688,1 52310U 22041BB  23015.82484027  .00000510  00000-0  50146-4 0  9992,2 52310  53.2146 206.5858 0002637  40.0882 320.0304 15.08840219 42420,6917.88,95.438,541.569,537.92,0.0
52310.0,STARLINK-3688,PAYLOAD,2023-01-16 11:41:37,15.08837185,0.0002591,53.2145,203.6122,42.4827,317.6365,1.8876e-05,1.2e-07,0.0,0 STARLINK-3688,1 52310U 22041BB  23016.48724310  .00000012  00000-0  18876-4 0  9998,2 52310  53.2145 203.6122 0002591  42.4827 317.6365 15.08837185 42523,6917.889,95.438,541.5459999999999,537.962,0.0
52310.0,STARLINK-3688,PAYLOAD,2023-01-16 21:13:56,15.08841266,0.0002554,53.2147,201.8279,41.9756,318.1432,7.7145e-05,9.4e-06,0.0,0 STARLINK-3688,1 52310U 22041BB  23016.88468135  .00000940  00000-0  77145-4 0  9996,2 52310  53.2147 201.8279 0002554  41.9756 318.1432 15.08841266 42584,6917.877,95.437,541.508,537.975,0.0
52310.0,STARLINK-3688,PAYLOAD,2023-01-17 06:46:15,15.08834927,0.0002604,53.2149,200.0431,45.6319,314.4886,2.686e-05,1.39e-06,0.0,0 STARLINK-3688,1 52310U 22041BB  23017.28212538  .00000139  00000-0  26860-4 0  9993,2 52310  53.2149 200.0431 0002604  45.6319 314.4886 15.08834927 42644,6917.896,95.438,541.562,537.9590000000001,0.0
52310.0,STARLINK-3688,PAYLOAD,2023-01-17 21:04:43,15.08839983,0.0002538,53.2158,197.3668,46.2345,313.8856,6.9354e-05,8.16e-06,0.0,0 STARLINK-3688,1 52310U 22041BB  23017.87828618  .00000816  00000-0  69354-4 0  9997,2 52310  53.2158 197.3668 0002538  46.2345 313.8856 15.08839983 42733,6917.88,95.438,541.501,537.99,0.0
52310.0,STARLINK-3688,PAYLOAD,2023-01-18 06:37:02,15.08839263,0.0002537,53.2158,195.583,47.4656,312.655,8.9567e-05,1.137e-05,0.0,0 STARLINK-3688,1 52310U 22041BB  23018.27572793  .00001137  00000-0  89567-4 0  9997,2 52310  53.2158 195.5830 0002537  47.4656 312.6550 15.08839263 42796,6917.883000000001,95.438,541.503,537.993,0.0
52310.0,STARLINK-3688,PAYLOAD,2023-01-18 19:20:07,15.08840593,0.0002504999999999,53.2159,193.2037,48.6041,311.5166,0.00011924,1.6100000000000002e-05,0.0,0 STARLINK-3688,1 52310U 22041BB  23018.80564787  .00001610  00000-0  11924-3 0  9997,2 52310  53.2159 193.2037 0002505  48.6041 311.5166 15.08840593 42875,6917.879,95.438,541.477,538.011,0.0
52310.0,STARLINK-3688,PAYLOAD,2023-01-19 11:13:58,15.08859174,0.0002585,53.2158,190.2302,47.0849,313.036,-0.00021022,-3.635e-05,0.0,0 STARLINK-3688,1 52310U 22041BB  23019.46803952 -.00003635  00000-0 -21022-3 0  9991,2 52310  53.2158 190.2302 0002585  47.0849 313.0360 15.08859174 42972,6917.821999999999,95.436,541.475,537.899,0.0
